<?xml version="1.0" encoding="UTF-8"?>
<ndm xmlns:xsi="http://www.w3.org/2001/XMLSchema-instance" xsi:noNamespaceSchemaLocation="https://sanaregistry.org/r/ndmxml_unqualified/ndmxml-2.0.0-master-2.0.xsd">
<omm id="CCSDS_OMM_VERS" version="2.0">
<header><CREATION_DATE/><ORIGINATOR/></header><body><segment><metadata><OBJECT_NAME>KUIPER-00089</OBJECT_NAME><OBJECT_ID>2025-151U</OBJECT_ID><CENTER_NAME>EARTH</CENTER_NAME><REF_FRAME>TEME</REF_FRAME><TIME_SYSTEM>UTC</TIME_SYSTEM><MEAN_ELEMENT_THEORY>SGP4</MEAN_ELEMENT_THEORY></metadata><data><meanElements><EPOCH>2025-07-28T18:21:52.838496</EPOCH><MEAN_MOTION>15.35199839</MEAN_MOTION><ECCENTRICITY>.0007306</ECCENTRICITY><INCLINATION>51.8783</INCLINATION><RA_OF_ASC_NODE>227.3805</RA_OF_ASC_NODE><ARG_OF_PERICENTER>194.9670</ARG_OF_PERICENTER><MEAN_ANOMALY>165.1101</MEAN_ANOMALY></meanElements><tleParameters><EPHEMERIS_TYPE>0</EPHEMERIS_TYPE><CLASSIFICATION_TYPE>U</CLASSIFICATION_TYPE><NORAD_CAT_ID>64834</NORAD_CAT_ID><ELEMENT_SET_NO>999</ELEMENT_SET_NO><REV_AT_EPOCH>191</REV_AT_EPOCH><BSTAR>-.28339E-2</BSTAR><MEAN_MOTION_DOT>-.97538E-3</MEAN_MOTION_DOT><MEAN_MOTION_DDOT>0</MEAN_MOTION_DDOT></tleParameters></data></segment></body></omm>
<omm id="CCSDS_OMM_VERS" version="2.0">
<header><CREATION_DATE/><ORIGINATOR/></header><body><segment><metadata><OBJECT_NAME>KUIPER-00090</OBJECT_NAME><OBJECT_ID>2025-151V</OBJECT_ID><CENTER_NAME>EARTH</CENTER_NAME><REF_FRAME>TEME</REF_FRAME><TIME_SYSTEM>UTC</TIME_SYSTEM><MEAN_ELEMENT_THEORY>SGP4</MEAN_ELEMENT_THEORY></metadata><data><meanElements><EPOCH>2025-07-28T13:43:18.250464</EPOCH><MEAN_MOTION>15.35029422</MEAN_MOTION><ECCENTRICITY>.0005734</ECCENTRICITY><INCLINATION>51.8784</INCLINATION><RA_OF_ASC_NODE>228.3324</RA_OF_ASC_NODE><ARG_OF_PERICENTER>205.2685</ARG_OF_PERICENTER><MEAN_ANOMALY>154.8022</MEAN_ANOMALY></meanElements><tleParameters><EPHEMERIS_TYPE>0</EPHEMERIS_TYPE><CLASSIFICATION_TYPE>U</CLASSIFICATION_TYPE><NORAD_CAT_ID>64835</NORAD_CAT_ID><ELEMENT_SET_NO>999</ELEMENT_SET_NO><REV_AT_EPOCH>188</REV_AT_EPOCH><BSTAR>.2995E-3</BSTAR><MEAN_MOTION_DOT>.9969E-4</MEAN_MOTION_DOT><MEAN_MOTION_DDOT>0</MEAN_MOTION_DDOT></tleParameters></data></segment></body></omm>
<omm id="CCSDS_OMM_VERS" version="2.0">
<header><CREATION_DATE/><ORIGINATOR/></header><body><segment><metadata><OBJECT_NAME>KUIPER-00091</OBJECT_NAME><OBJECT_ID>2025-151W</OBJECT_ID><CENTER_NAME>EARTH</CENTER_NAME><REF_FRAME>TEME</REF_FRAME><TIME_SYSTEM>UTC</TIME_SYSTEM><MEAN_ELEMENT_THEORY>SGP4</MEAN_ELEMENT_THEORY></metadata><data><meanElements><EPOCH>2025-07-28T18:16:41.880576</EPOCH><MEAN_MOTION>15.35715456</MEAN_MOTION><ECCENTRICITY>.0005852</ECCENTRICITY><INCLINATION>51.8776</INCLINATION><RA_OF_ASC_NODE>227.3526</RA_OF_ASC_NODE><ARG_OF_PERICENTER>177.7623</ARG_OF_PERICENTER><MEAN_ANOMALY>182.3390</MEAN_ANOMALY></meanElements><tleParameters><EPHEMERIS_TYPE>0</EPHEMERIS_TYPE><CLASSIFICATION_TYPE>U</CLASSIFICATION_TYPE><NORAD_CAT_ID>64836</NORAD_CAT_ID><ELEMENT_SET_NO>999</ELEMENT_SET_NO><REV_AT_EPOCH>191</REV_AT_EPOCH><BSTAR>.60532E-3</BSTAR><MEAN_MOTION_DOT>.21033E-3</MEAN_MOTION_DOT><MEAN_MOTION_DDOT>0</MEAN_MOTION_DDOT></tleParameters></data></segment></body></omm>
<omm id="CCSDS_OMM_VERS" version="2.0">
<header><CREATION_DATE/><ORIGINATOR/></header><body><segment><metadata><OBJECT_NAME>KUIPER-00092</OBJECT_NAME><OBJECT_ID>2025-151X</OBJECT_ID><CENTER_NAME>EARTH</CENTER_NAME><REF_FRAME>TEME</REF_FRAME><TIME_SYSTEM>UTC</TIME_SYSTEM><MEAN_ELEMENT_THEORY>SGP4</MEAN_ELEMENT_THEORY></metadata><data><meanElements><EPOCH>2025-07-28T13:37:53.289696</EPOCH><MEAN_MOTION>15.36012890</MEAN_MOTION><ECCENTRICITY>.0004588</ECCENTRICITY><INCLINATION>51.8776</INCLINATION><RA_OF_ASC_NODE>228.3037</RA_OF_ASC_NODE><ARG_OF_PERICENTER>210.2447</ARG_OF_PERICENTER><MEAN_ANOMALY>149.8275</MEAN_ANOMALY></meanElements><tleParameters><EPHEMERIS_TYPE>0</EPHEMERIS_TYPE><CLASSIFICATION_TYPE>U</CLASSIFICATION_TYPE><NORAD_CAT_ID>64837</NORAD_CAT_ID><ELEMENT_SET_NO>999</ELEMENT_SET_NO><REV_AT_EPOCH>309</REV_AT_EPOCH><BSTAR>.1344E-1</BSTAR><MEAN_MOTION_DOT>.512042E-2</MEAN_MOTION_DOT><MEAN_MOTION_DDOT>0</MEAN_MOTION_DDOT></tleParameters></data></segment></body></omm>
<omm id="CCSDS_OMM_VERS" version="2.0">
<header><CREATION_DATE/><ORIGINATOR/></header><body><segment><metadata><OBJECT_NAME>KUIPER-00093</OBJECT_NAME><OBJECT_ID>2025-151Y</OBJECT_ID><CENTER_NAME>EARTH</CENTER_NAME><REF_FRAME>TEME</REF_FRAME><TIME_SYSTEM>UTC</TIME_SYSTEM><MEAN_ELEMENT_THEORY>SGP4</MEAN_ELEMENT_THEORY></metadata><data><meanElements><EPOCH>2025-07-28T13:40:30.435744</EPOCH><MEAN_MOTION>15.35272326</MEAN_MOTION><ECCENTRICITY>.0005164</ECCENTRICITY><INCLINATION>51.8787</INCLINATION><RA_OF_ASC_NODE>228.3220</RA_OF_ASC_NODE><ARG_OF_PERICENTER>190.5357</ARG_OF_PERICENTER><MEAN_ANOMALY>169.5521</MEAN_ANOMALY></meanElements><tleParameters><EPHEMERIS_TYPE>0</EPHEMERIS_TYPE><CLASSIFICATION_TYPE>U</CLASSIFICATION_TYPE><NORAD_CAT_ID>64838</NORAD_CAT_ID><ELEMENT_SET_NO>999</ELEMENT_SET_NO><REV_AT_EPOCH>188</REV_AT_EPOCH><BSTAR>.36837E-3</BSTAR><MEAN_MOTION_DOT>.12451E-3</MEAN_MOTION_DOT><MEAN_MOTION_DDOT>0</MEAN_MOTION_DDOT></tleParameters></data></segment></body></omm>
<omm id="CCSDS_OMM_VERS" version="2.0">
<header><CREATION_DATE/><ORIGINATOR/></header><body><segment><metadata><OBJECT_NAME>KUIPER-00094</OBJECT_NAME><OBJECT_ID>2025-151Z</OBJECT_ID><CENTER_NAME>EARTH</CENTER_NAME><REF_FRAME>TEME</REF_FRAME><TIME_SYSTEM>UTC</TIME_SYSTEM><MEAN_ELEMENT_THEORY>SGP4</MEAN_ELEMENT_THEORY></metadata><data><meanElements><EPOCH>2025-07-28T13:37:31.401120</EPOCH><MEAN_MOTION>15.35559372</MEAN_MOTION><ECCENTRICITY>.0005136</ECCENTRICITY><INCLINATION>51.8775</INCLINATION><RA_OF_ASC_NODE>228.3025</RA_OF_ASC_NODE><ARG_OF_PERICENTER>183.0557</ARG_OF_PERICENTER><MEAN_ANOMALY>177.0398</MEAN_ANOMALY></meanElements><tleParameters><EPHEMERIS_TYPE>0</EPHEMERIS_TYPE><CLASSIFICATION_TYPE>U</CLASSIFICATION_TYPE><NORAD_CAT_ID>64839</NORAD_CAT_ID><ELEMENT_SET_NO>999</ELEMENT_SET_NO><REV_AT_EPOCH>188</REV_AT_EPOCH><BSTAR>.5397E-3</BSTAR><MEAN_MOTION_DOT>.18609E-3</MEAN_MOTION_DOT><MEAN_MOTION_DDOT>0</MEAN_MOTION_DDOT></tleParameters></data></segment></body></omm>
</ndm>
