KUIPER-00089            
1 64834U 25151U   25209.76519489 -.00097538  00000+0 -28339-2 0  9996
2 64834  51.8783 227.3805 0007306 194.9670 165.1101 15.35199839  1917
KUIPER-00090            
1 64835U 25151V   25209.57173901  .00009969  00000+0  29950-3 0  9991
2 64835  51.8784 228.3324 0005734 205.2685 154.8022 15.35029422  1884
KUIPER-00091            
1 64836U 25151W   25209.76159584  .00021033  00000+0  60532-3 0  9991
2 64836  51.8776 227.3526 0005852 177.7623 182.3390 15.35715456  1912
KUIPER-00092            
1 64837U 25151X   25209.56797789  .00512042  00000+0  13440-1 0  9994
2 64837  51.8776 228.3037 0004588 210.2447 149.8275 15.36012890  3097
KUIPER-00093            
1 64838U 25151Y   25209.56979671  .00012451  00000+0  36837-3 0  9993
2 64838  51.8787 228.3220 0005164 190.5357 169.5521 15.35272326  1884
KUIPER-00094            
1 64839U 25151Z   25209.56772455  .00018609  00000+0  53970-3 0  9993
2 64839  51.8775 228.3025 0005136 183.0557 177.0398 15.35559372  1888
